{
    "links": {
        "self": "http://www.neowsapp.com/rest/v1/neo/54087439?api_key=iIulBulltgU6a56xZRHN4H3l9WmuAYTsLGpBGhQ2"
    },
    "id": "54087439",
    "neo_reference_id": "54087439",
    "name": "(2020 VX)",
    "designation": "2020 VX",
    "nasa_jpl_url": "http://ssd.jpl.nasa.gov/sbdb.cgi?sstr=54087439",
    "absolute_magnitude_h": 24.937,
    "estimated_diameter": {
        "kilometers": {
            "estimated_diameter_min": 0.0273624497,
            "estimated_diameter_max": 0.0611842976
        },
        "meters": {
            "estimated_diameter_min": 27.3624497244,
            "estimated_diameter_max": 61.1842976147
        },
        "miles": {
            "estimated_diameter_min": 0.0170022327,
            "estimated_diameter_max": 0.0380181482
        },
        "feet": {
            "estimated_diameter_min": 89.7718195538,
            "estimated_diameter_max": 200.7358909862
        }
    },
    "is_potentially_hazardous_asteroid": false,
    "close_approach_data": [
        {
            "close_approach_date": "2020-10-28",
            "close_approach_date_full": "2020-Oct-28 22:36",
            "epoch_date_close_approach": 1603924560000,
            "relative_velocity": {
                "kilometers_per_second": "19.0341628892",
                "kilometers_per_hour": "68522.9864009839",
                "miles_per_hour": "42577.5189667669"
            },
            "miss_distance": {
                "astronomical": "0.018610428",
                "lunar": "7.239456492",
                "kilometers": "2784080.38858836",
                "miles": "1729947.334744968"
            },
            "orbiting_body": "Earth"
        }
    ],
    "orbital_data": {
        "orbit_id": "7",
        "orbit_determination_date": "2020-11-13 05:20:57",
        "first_observation_date": "2020-11-05",
        "last_observation_date": "2020-11-11",
        "data_arc_in_days": 6,
        "observations_used": 51,
        "orbit_uncertainty": "9",
        "minimum_orbit_intersection": ".00783062",
        "jupiter_tisserand_invariant": "3.431",
        "epoch_osculation": "2459161.5",
        "eccentricity": ".6808309875681059",
        "semi_major_axis": "2.075205321912944",
        "inclination": "2.981461753157329",
        "ascending_node_longitude": "46.91155943571387",
        "orbital_period": "1091.918025977517",
        "perihelion_distance": ".6623412331883654",
        "perihelion_argument": "269.988667083854",
        "aphelion_distance": "3.488069410637523",
        "perihelion_time": "2459106.205900870657",
        "mean_anomaly": "18.23019238897825",
        "mean_motion": ".3296950791500283",
        "equinox": "J2000",
        "orbit_class": {
            "orbit_class_type": "APO",
            "orbit_class_description": "Near-Earth asteroid orbits which cross the Earth’s orbit similar to that of 1862 Apollo",
            "orbit_class_range": "a (semi-major axis) > 1.0 AU; q (perihelion) < 1.017 AU"
        }
    },
    "is_sentry_object": false
}